CCSDS_OMM_VERS = 2.0
CREATION_DATE  = 
ORIGINATOR     = 

OBJECT_NAME    = KUIPER-00204
OBJECT_ID      = 2025-301N
CENTER_NAME    = EARTH
REF_FRAME      = TEME
TIME_SYSTEM    = UTC
MEAN_ELEMENT_THEORY = SGP/SGP4

EPOCH          = 2026-01-02T18:43:55.579296
MEAN_MOTION    = 15.36296938
ECCENTRICITY   = .0003138
INCLINATION    = 51.8746
RA_OF_ASC_NODE = 23.5165
ARG_OF_PERICENTER = 79.4967
MEAN_ANOMALY   = 280.6373

EPHEMERIS_TYPE = 0
CLASSIFICATION_TYPE = U
NORAD_CAT_ID   = 67145
ELEMENT_SET_NO = 999
REV_AT_EPOCH   = 371
BSTAR          = .59913E-4
MEAN_MOTION_DOT = .1767E-4
MEAN_MOTION_DDOT = 0

CCSDS_OMM_VERS = 2.0
CREATION_DATE  = 
ORIGINATOR     = 

OBJECT_NAME    = KUIPER-00210
OBJECT_ID      = 2025-301P
CENTER_NAME    = EARTH
REF_FRAME      = TEME
TIME_SYSTEM    = UTC
MEAN_ELEMENT_THEORY = SGP/SGP4

EPOCH          = 2026-01-02T14:41:22.008192
MEAN_MOTION    = 15.34564706
ECCENTRICITY   = .00104187
INCLINATION    = 51.8604
RA_OF_ASC_NODE = 24.6300
ARG_OF_PERICENTER = 172.1836
MEAN_ANOMALY   = 187.9314

EPHEMERIS_TYPE = 0
CLASSIFICATION_TYPE = U
NORAD_CAT_ID   = 67146
ELEMENT_SET_NO = 999
REV_AT_EPOCH   = 374
BSTAR          = .12397239E-2
MEAN_MOTION_DOT = .42069E-3
MEAN_MOTION_DDOT = 0

CCSDS_OMM_VERS = 2.0
CREATION_DATE  = 
ORIGINATOR     = 

OBJECT_NAME    = KUIPER-00221
OBJECT_ID      = 2025-301Q
CENTER_NAME    = EARTH
REF_FRAME      = TEME
TIME_SYSTEM    = UTC
MEAN_ELEMENT_THEORY = SGP/SGP4

EPOCH          = 2026-01-02T14:16:16.997088
MEAN_MOTION    = 15.36041481
ECCENTRICITY   = .00052345
INCLINATION    = 51.8723
RA_OF_ASC_NODE = 24.5252
ARG_OF_PERICENTER = 135.2134
MEAN_ANOMALY   = 224.9276

EPHEMERIS_TYPE = 0
CLASSIFICATION_TYPE = U
NORAD_CAT_ID   = 67147
ELEMENT_SET_NO = 999
REV_AT_EPOCH   = 357
BSTAR          = .13947945E-2
MEAN_MOTION_DOT = .49671E-3
MEAN_MOTION_DDOT = 0

CCSDS_OMM_VERS = 2.0
CREATION_DATE  = 
ORIGINATOR     = 

OBJECT_NAME    = KUIPER-00232
OBJECT_ID      = 2025-301R
CENTER_NAME    = EARTH
REF_FRAME      = TEME
TIME_SYSTEM    = UTC
MEAN_ELEMENT_THEORY = SGP/SGP4

EPOCH          = 2026-01-02T18:41:09.127968
MEAN_MOTION    = 15.36988198
ECCENTRICITY   = .0002351
INCLINATION    = 51.8747
RA_OF_ASC_NODE = 23.5086
ARG_OF_PERICENTER = 67.2145
MEAN_ANOMALY   = 292.9090

EPHEMERIS_TYPE = 0
CLASSIFICATION_TYPE = U
NORAD_CAT_ID   = 67148
ELEMENT_SET_NO = 999
REV_AT_EPOCH   = 360
BSTAR          = .15068E-2
MEAN_MOTION_DOT = .55386E-3
MEAN_MOTION_DDOT = 0

CCSDS_OMM_VERS = 2.0
CREATION_DATE  = 
ORIGINATOR     = 

OBJECT_NAME    = KUIPER-00241
OBJECT_ID      = 2025-301S
CENTER_NAME    = EARTH
REF_FRAME      = TEME
TIME_SYSTEM    = UTC
MEAN_ELEMENT_THEORY = SGP/SGP4

EPOCH          = 2026-01-02T18:48:44.187264
MEAN_MOTION    = 15.36521766
ECCENTRICITY   = .0002518
INCLINATION    = 51.8746
RA_OF_ASC_NODE = 23.5416
ARG_OF_PERICENTER = 115.6235
MEAN_ANOMALY   = 244.5012

EPHEMERIS_TYPE = 0
CLASSIFICATION_TYPE = U
NORAD_CAT_ID   = 67149
ELEMENT_SET_NO = 999
REV_AT_EPOCH   = 393
BSTAR          = .17021E-2
MEAN_MOTION_DOT = .61731E-3
MEAN_MOTION_DDOT = 0

CCSDS_OMM_VERS = 2.0
CREATION_DATE  = 
ORIGINATOR     = 

OBJECT_NAME    = KUIPER-00245
OBJECT_ID      = 2025-301T
CENTER_NAME    = EARTH
REF_FRAME      = TEME
TIME_SYSTEM    = UTC
MEAN_ELEMENT_THEORY = SGP/SGP4

EPOCH          = 2026-01-02T14:17:29.300928
MEAN_MOTION    = 15.36018007
ECCENTRICITY   = .00052877
INCLINATION    = 51.8729
RA_OF_ASC_NODE = 24.5306
ARG_OF_PERICENTER = 141.6327
MEAN_ANOMALY   = 218.5036

EPHEMERIS_TYPE = 0
CLASSIFICATION_TYPE = U
NORAD_CAT_ID   = 67150
ELEMENT_SET_NO = 999
REV_AT_EPOCH   = 357
BSTAR          = .13448255E-2
MEAN_MOTION_DOT = .4783E-3
MEAN_MOTION_DDOT = 0

CCSDS_OMM_VERS = 2.0
CREATION_DATE  = 
ORIGINATOR     = 

OBJECT_NAME    = KUIPER-00246
OBJECT_ID      = 2025-301U
CENTER_NAME    = EARTH
REF_FRAME      = TEME
TIME_SYSTEM    = UTC
MEAN_ELEMENT_THEORY = SGP/SGP4

EPOCH          = 2026-01-02T18:53:33.886464
MEAN_MOTION    = 15.36263360
ECCENTRICITY   = .0004017
INCLINATION    = 51.8739
RA_OF_ASC_NODE = 23.5652
ARG_OF_PERICENTER = 136.6711
MEAN_ANOMALY   = 223.4592

EPHEMERIS_TYPE = 0
CLASSIFICATION_TYPE = U
NORAD_CAT_ID   = 67151
ELEMENT_SET_NO = 999
REV_AT_EPOCH   = 362
BSTAR          = .13847E-2
MEAN_MOTION_DOT = .49655E-3
MEAN_MOTION_DDOT = 0

CCSDS_OMM_VERS = 2.0
CREATION_DATE  = 
ORIGINATOR     = 

OBJECT_NAME    = KUIPER-00247
OBJECT_ID      = 2025-301V
CENTER_NAME    = EARTH
REF_FRAME      = TEME
TIME_SYSTEM    = UTC
MEAN_ELEMENT_THEORY = SGP/SGP4

EPOCH          = 2026-01-02T14:44:14.264736
MEAN_MOTION    = 15.34411731
ECCENTRICITY   = .00111529
INCLINATION    = 51.8630
RA_OF_ASC_NODE = 24.6460
ARG_OF_PERICENTER = 175.4485
MEAN_ANOMALY   = 184.6604

EPHEMERIS_TYPE = 0
CLASSIFICATION_TYPE = U
NORAD_CAT_ID   = 67152
ELEMENT_SET_NO = 999
REV_AT_EPOCH   = 357
BSTAR          = .87583238E-3
MEAN_MOTION_DOT = .2942E-3
MEAN_MOTION_DDOT = 0

CCSDS_OMM_VERS = 2.0
CREATION_DATE  = 
ORIGINATOR     = 

OBJECT_NAME    = KUIPER-00248
OBJECT_ID      = 2025-301W
CENTER_NAME    = EARTH
REF_FRAME      = TEME
TIME_SYSTEM    = UTC
MEAN_ELEMENT_THEORY = SGP/SGP4

EPOCH          = 2026-01-02T14:33:14.867712
MEAN_MOTION    = 15.35112571
ECCENTRICITY   = .00089217
INCLINATION    = 51.8678
RA_OF_ASC_NODE = 24.6007
ARG_OF_PERICENTER = 162.9941
MEAN_ANOMALY   = 197.1345

EPHEMERIS_TYPE = 0
CLASSIFICATION_TYPE = U
NORAD_CAT_ID   = 67153
ELEMENT_SET_NO = 999
REV_AT_EPOCH   = 374
BSTAR          = .15093379E-2
MEAN_MOTION_DOT = .52257E-3
MEAN_MOTION_DDOT = 0

CCSDS_OMM_VERS = 2.0
CREATION_DATE  = 
ORIGINATOR     = 

OBJECT_NAME    = KUIPER-00249
OBJECT_ID      = 2025-301X
CENTER_NAME    = EARTH
REF_FRAME      = TEME
TIME_SYSTEM    = UTC
MEAN_ELEMENT_THEORY = SGP/SGP4

EPOCH          = 2026-01-02T14:30:24.714144
MEAN_MOTION    = 15.35246103
ECCENTRICITY   = .00083745
INCLINATION    = 51.8655
RA_OF_ASC_NODE = 24.5862
ARG_OF_PERICENTER = 159.9382
MEAN_ANOMALY   = 200.1935

EPHEMERIS_TYPE = 0
CLASSIFICATION_TYPE = U
NORAD_CAT_ID   = 67154
ELEMENT_SET_NO = 999
REV_AT_EPOCH   = 357
BSTAR          = .16594603E-2
MEAN_MOTION_DOT = .57773E-3
MEAN_MOTION_DDOT = 0

CCSDS_OMM_VERS = 2.0
CREATION_DATE  = 
ORIGINATOR     = 

OBJECT_NAME    = KUIPER-00250
OBJECT_ID      = 2025-301Y
CENTER_NAME    = EARTH
REF_FRAME      = TEME
TIME_SYSTEM    = UTC
MEAN_ELEMENT_THEORY = SGP/SGP4

EPOCH          = 2026-01-02T14:22:09.427872
MEAN_MOTION    = 15.35799511
ECCENTRICITY   = .00066056
INCLINATION    = 51.8718
RA_OF_ASC_NODE = 24.5524
ARG_OF_PERICENTER = 149.9586
MEAN_ANOMALY   = 210.1781

EPHEMERIS_TYPE = 0
CLASSIFICATION_TYPE = U
NORAD_CAT_ID   = 67155
ELEMENT_SET_NO = 999
REV_AT_EPOCH   = 360
BSTAR          = .1398632E-2
MEAN_MOTION_DOT = .49431E-3
MEAN_MOTION_DDOT = 0

CCSDS_OMM_VERS = 2.0
CREATION_DATE  = 
ORIGINATOR     = 

OBJECT_NAME    = KUIPER-00251
OBJECT_ID      = 2025-301Z
CENTER_NAME    = EARTH
REF_FRAME      = TEME
TIME_SYSTEM    = UTC
MEAN_ELEMENT_THEORY = SGP/SGP4

EPOCH          = 2026-01-02T14:31:43.161888
MEAN_MOTION    = 15.35218423
ECCENTRICITY   = .00093539
INCLINATION    = 51.8665
RA_OF_ASC_NODE = 24.5927
ARG_OF_PERICENTER = 159.6555
MEAN_ANOMALY   = 200.4805

EPHEMERIS_TYPE = 0
CLASSIFICATION_TYPE = U
NORAD_CAT_ID   = 67156
ELEMENT_SET_NO = 999
REV_AT_EPOCH   = 376
BSTAR          = .11641498E-2
MEAN_MOTION_DOT = .40295E-3
MEAN_MOTION_DDOT = 0

