KUIPER-00204            
1 67145U 25301N   26002.78050439  .00001767  00000+0  59913-4 0  9991
2 67145  51.8746  23.5165 0003138  79.4967 280.6373 15.36296938  3717
KUIPER-00210            
1 67146U 25301P   26002.61206028  .00042069  00000+0  12397-2 0  9994
2 67146  51.8604  24.6300 0010418 172.1836 187.9314 15.34564706  3745
KUIPER-00221            
1 67147U 25301Q   26002.59464117  .00049671  00000+0  13948-2 0  9996
2 67147  51.8723  24.5252 0005234 135.2134 224.9276 15.36041481  3576
KUIPER-00232            
1 67148U 25301R   26002.77857787  .00055386  00000+0  15068-2 0  9991
2 67148  51.8747  23.5086 0002351  67.2145 292.9090 15.36988198  3608
KUIPER-00241            
1 67149U 25301S   26002.78384476  .00061731  00000+0  17021-2 0  9995
2 67149  51.8746  23.5416 0002518 115.6235 244.5012 15.36521766  3935
KUIPER-00245            
1 67150U 25301T   26002.59547802  .00047830  00000+0  13448-2 0  9993
2 67150  51.8729  24.5306 0005287 141.6327 218.5036 15.36018007  3570
KUIPER-00246            
1 67151U 25301U   26002.78719776  .00049655  00000+0  13847-2 0  9996
2 67151  51.8739  23.5652 0004017 136.6711 223.4592 15.36263360  3628
KUIPER-00247            
1 67152U 25301V   26002.61405399  .00029420  00000+0  87583-3 0  9999
2 67152  51.8630  24.6460 0011152 175.4485 184.6604 15.34411731  3576
KUIPER-00248            
1 67153U 25301W   26002.60642208  .00052257  00000+0  15093-2 0  9991
2 67153  51.8678  24.6007 0008921 162.9941 197.1345 15.35112571  3745
KUIPER-00249            
1 67154U 25301X   26002.60445271  .00057773  00000+0  16595-2 0  9999
2 67154  51.8655  24.5862 0008374 159.9382 200.1935 15.35246103  3576
KUIPER-00250            
1 67155U 25301Y   26002.59872023  .00049431  00000+0  13986-2 0  9990
2 67155  51.8718  24.5524 0006605 149.9586 210.1781 15.35799511  3602
KUIPER-00251            
1 67156U 25301Z   26002.60536067  .00040295  00000+0  11641-2 0  9993
2 67156  51.8665  24.5927 0009353 159.6555 200.4805 15.35218423  3762
